KUIPER-00008            
1 63724U 25088A   25258.00951599  .00003883  00000+0  33720-3 0  9994
2 63724  51.8899 167.9864 0010532 224.6374 135.3749 14.99113839 21704
KUIPER-00009            
1 63725U 25088B   25258.00280923  .00002794  00000+0  39528-3 0  9993
2 63725  51.9014 163.4905 0011753 239.8169 120.1630 14.79928230 21762
KUIPER-00010            
1 63726U 25088C   25258.25003472 -.00520886  00000+0 -19857-1 0  9993
2 63726  51.8670 146.2927 0010454 258.7187 119.3350 15.28371573  5870
KUIPER-00011            
1 63727U 25088D   25258.25003472 -.01597441  00000+0 -10793+0 0  9994
2 63727  51.8744 148.9312 0009200 254.4983 141.0224 15.09671870  3371
KUIPER-00012            
1 63728U 25088E   25258.25003472 -.01064393  00000+0 -46073-1 0  9992
2 63728  51.8660 146.7275 0009210 243.3210 212.7390 15.24805371  5334
KUIPER-00013            
1 63729U 25088F   25258.00165966  .00002946  00000+0  41524-3 0  9994
2 63729  51.9013 164.9596 0008221 167.3809 192.7361 14.79937799 21552
KUIPER-00014            
1 63730U 25088G   25258.00002665  .00001512  00000+0  22748-3 0  9997
2 63730  51.9031 165.9322 0007925 232.1619 127.8627 14.79920908 21358
KUIPER-00015            
1 63731U 25088H   25257.93791260  .00002297  00000+0  31953-3 0  9994
2 63731  51.8996 178.2597 0009919 213.3223 146.7117 14.81368096 21638
